{
"type": "FeatureCollection",
"name": "boundary",
"crs": { "type": "name", "properties": { "name": "urn:ogc:def:crs:OGC:1.3:CRS84" } },
"features": [
{ "type": "Feature", "properties": { "id": null }, "geometry": { "type": "MultiPolygon", "coordinates": [ [ [ [ -120.054298696058908, 34.693367393169865 ], [ -120.055017283870612, 34.693599170778064 ], [ -120.055048212594173, 34.69382503463325 ], [ -120.054926947294874, 34.69395073932499 ], [ -120.054917074138899, 34.694229215338218 ], [ -120.054665047101025, 34.694748389537679 ], [ -120.05406321272099, 34.694883907491246 ], [ -120.053515857009359, 34.694581229135672 ], [ -120.053314072885811, 34.694415549219499 ], [ -120.053207622677306, 34.694123538640291 ], [ -120.053102313050815, 34.693799396197264 ], [ -120.052902051550234, 34.693590873325704 ], [ -120.052705163961463, 34.692921480663685 ], [ -120.052740978847083, 34.692643632876042 ], [ -120.052713856618539, 34.69231066276015 ], [ -120.05277560567248, 34.692033442644323 ], [ -120.052329730917634, 34.691797534376498 ], [ -120.051770531057613, 34.691097929680225 ], [ -120.051735006882723, 34.690636118448552 ], [ -120.051456193518831, 34.690447131097073 ], [ -120.050954280926078, 34.690327778862937 ], [ -120.05079863693237, 34.689959536461672 ], [ -120.050612497666066, 34.68971919276845 ], [ -120.051175439176049, 34.689947222139786 ], [ -120.05143283515801, 34.689642580963834 ], [ -120.051559800278611, 34.689356220753083 ], [ -120.051973554984329, 34.689033924488385 ], [ -120.052373959715794, 34.688722023368683 ], [ -120.052716415423603, 34.688580235117712 ], [ -120.052966253005295, 34.688854276694386 ], [ -120.052877054302229, 34.689173711963612 ], [ -120.053034226160818, 34.689499109716451 ], [ -120.053559464377912, 34.690058529563686 ], [ -120.053848589941552, 34.690322800294894 ], [ -120.0538669276376, 34.690537639991277 ], [ -120.054016076012516, 34.690723485047009 ], [ -120.053963881160698, 34.691097415332351 ], [ -120.054137066092778, 34.691337440793831 ], [ -120.054075322225188, 34.691614661884472 ], [ -120.054204723270388, 34.692357458633097 ], [ -120.054001096718153, 34.692609807528164 ], [ -120.054086604364144, 34.693126426602987 ], [ -120.054298696058908, 34.693367393169865 ] ] ] ] } }
]
}
